ONEWEB-0319             
1 49105U 21075AG  25243.93253149  .00000078  00000+0  16741-3 0  9992
2 49105  87.9027  63.4264 0002084  96.9264 263.2104 13.17648223195515
ONEWEB-0323             
1 49106U 21075AH  25243.94936864 -.00000370  00000+0 -10635-2 0  9998
2 49106  87.8880  48.1178 0002370 103.7019 256.4374 13.12441644196617
ONEWEB-0329             
1 49107U 21075AJ  25243.94096746  .00000074  00000+0  15680-3 0  9990
2 49107  87.9024  63.4288 0001907  96.3729 263.7619 13.17649484195496
ONEWEB-0330             
1 49108U 21075AK  25243.94180306  .00000038  00000+0  64146-4 0  9999
2 49108  87.9029  63.4319 0001619  98.7003 261.4312 13.17651699195539
ONEWEB-0292             
1 49186U 21083A   25243.91923365  .00000031  00000+0  51034-4 0  9996
2 49186  87.9014  17.7291 0001901  98.4335 261.7010 13.13469586192958
ONEWEB-0303             
1 49187U 21083B   25243.83517425  .00000051  00000+0  96593-4 0  9995
2 49187  87.9167  32.9146 0001941  96.9224 263.2129 13.18686366191847
ONEWEB-0306             
1 49188U 21083C   25243.90115420  .00000067  00000+0  13703-3 0  9991
2 49188  87.9168  32.8871 0001545  93.1703 266.9606 13.18686406191894
ONEWEB-0307             
1 49189U 21083D   25243.83711501  .00000207  00000+0  53101-3 0  9998
2 49189  87.9002  17.7445 0001445 104.4688 255.6601 13.13472187192949
